{"type": "FeatureCollection", "features": [ {"type": "Feature", "properties": {"norad_id": 33939, "name": "COSMOS 2251 DEB", "group": "cosmos-2251-debris", "lat": 23.94148134593014, "lon": -128.42155250990749, "alt_km": 566.5307029672776, "timestamp": "2025-12-23T09:49:07.476067+00:00", "meta": {"OBJECT_NAME": "COSMOS 2251 DEB", "OBJECT_ID": "1993-036EU", "EPOCH": "2025-12-22T21:55:49.712448", "MEAN_MOTION": 15.00557181, "ECCENTRICITY": 0.00047805, "INCLINATION": 74.0055, "RA_OF_ASC_NODE": 59.9044, "ARG_OF_PERICENTER": 21.38, "MEAN_ANOMALY": 338.7585, "EPHEMERIS_TYPE": 0, "CLASSIFICATION_TYPE": "U", "NORAD_CAT_ID": 33939, "ELEMENT_SET_NO": 999, "REV_AT_EPOCH": 88905, "BSTAR": 0.0029530922, "MEAN_MOTION_DOT": 0.00037444, "MEAN_MOTION_DDOT": 0}, "tle": {"line1": "1 33939U 93036EU  25356.91376982  .00037444  00000+0  29531-2 0  9997", "line2": "2 33939  74.0055  59.9044 0004780  21.3800 338.7585 15.00557181889056"}}, "geometry": {"type": "Point", "coordinates": [-128.42155250990749, 23.94148134593014]}}, {"type": "Feature", "properties": {"norad_id": 33940, "name": "COSMOS 2251 DEB", "group": "cosmos-2251-debris", "lat": 41.92401624051712, "lon": -71.71001838118664, "alt_km": 690.0828189770818, "timestamp": "2025-12-23T09:49:07.476077+00:00", "meta": {"OBJECT_NAME": "COSMOS 2251 DEB", "OBJECT_ID": "1993-036EV", "EPOCH": "2025-12-22T10:25:00.117696", "MEAN_MOTION": 14.58882175, "ECCENTRICITY": 0.00108483, "INCLINATION": 74.04, "RA_OF_ASC_NODE": 125.0376, "ARG_OF_PERICENTER": 205.6735, "MEAN_ANOMALY": 211.3007, "EPHEMERIS_TYPE": 0, "CLASSIFICATION_TYPE": "U", "NORAD_CAT_ID": 33940, "ELEMENT_SET_NO": 999, "REV_AT_EPOCH": 88735, "BSTAR": 0.0011603025, "MEAN_MOTION_DOT": 5.413e-05, "MEAN_MOTION_DDOT": 0}, "tle": {"line1": "1 33940U 93036EV  25356.43402914  .00005413  00000+0  11603-2 0  9993", "line2": "2 33940  74.0400 125.0376 0010848 205.6735 211.3007 14.58882175887353"}}, "geometry": {"type": "Point", "coordinates": [-71.71001838118664, 41.92401624051712]}}, {"type": "Feature", "properties": {"norad_id": 33942, "name": "COSMOS 2251 DEB", "group": "cosmos-2251-debris", "lat": -66.8944762910997, "lon": 117.31754923708965, "alt_km": 770.2717711662335, "timestamp": "2025-12-23T09:49:07.476087+00:00", "meta": {"OBJECT_NAME": "COSMOS 2251 DEB", "OBJECT_ID": "1993-036EX", "EPOCH": "2025-12-22T11:47:55.931712", "MEAN_MOTION": 14.38001678, "ECCENTRICITY": 0.0020719, "INCLINATION": 74.0364, "RA_OF_ASC_NODE": 256.8694, "ARG_OF_PERICENTER": 338.3774, "MEAN_ANOMALY": 207.1235, "EPHEMERIS_TYPE": 0, "CLASSIFICATION_TYPE": "U", "NORAD_CAT_ID": 33942, "ELEMENT_SET_NO": 999, "REV_AT_EPOCH": 88274, "BSTAR": 0.00019451367, "MEAN_MOTION_DOT": 5.63e-06, "MEAN_MOTION_DDOT": 0}, "tle": {"line1": "1 33942U 93036EX  25356.49161958  .00000563  00000+0  19451-3 0  9992", "line2": "2 33942  74.0364 256.8694 0020719 338.3774 207.1235 14.38001678882748"}}, "geometry": {"type": "Point", "coordinates": [117.31754923708965, -66.8944762910997]}}, {"type": "Feature", "properties": {"norad_id": 33944, "name": "COSMOS 2251 DEB", "group": "cosmos-2251-debris", "lat": 68.61066748382369, "lon": 62.36038316714754, "alt_km": 742.8820727276334, "timestamp": "2025-12-23T09:49:07.476097+00:00", "meta": {"OBJECT_NAME": "COSMOS 2251 DEB", "OBJECT_ID": "1993-036EZ", "EPOCH": "2025-12-22T20:15:33.206112", "MEAN_MOTION": 14.37364786, "ECCENTRICITY": 0.011262, "INCLINATION": 74.0407, "RA_OF_ASC_NODE": 290.3361, "ARG_OF_PERICENTER": 27.3616, "MEAN_ANOMALY": 33.4512, "EPHEMERIS_TYPE": 0, "CLASSIFICATION_TYPE": "U", "NORAD_CAT_ID": 33944, "ELEMENT_SET_NO": 999, "REV_AT_EPOCH": 88173, "BSTAR": 0.00031267332, "MEAN_MOTION_DOT": 9.77e-06, "MEAN_MOTION_DDOT": 0}, "tle": {"line1": "1 33944U 93036EZ  25356.84413433  .00000977  00000+0  31267-3 0  9999", "line2": "2 33944  74.0407 290.3361 0112620  27.3616  33.4512 14.37364786881732"}}, "geometry": {"type": "Point", "coordinates": [62.36038316714754, 68.61066748382369]}}, {"type": "Feature", "properties": {"norad_id": 33945, "name": "COSMOS 2251 DEB", "group": "cosmos-2251-debris", "lat": 28.0494775624213, "lon": 97.94134588899891, "alt_km": 787.0809419208372, "timestamp": "2025-12-23T09:49:07.476107+00:00", "meta": {"OBJECT_NAME": "COSMOS 2251 DEB", "OBJECT_ID": "1993-036FA", "EPOCH": "2025-12-22T19:43:52.444128", "MEAN_MOTION": 14.34608243, "ECCENTRICITY": 0.00223406, "INCLINATION": 74.0303, "RA_OF_ASC_NODE": 287.7927, "ARG_OF_PERICENTER": 11.4442, "MEAN_ANOMALY": 348.7214, "EPHEMERIS_TYPE": 0, "CLASSIFICATION_TYPE": "U", "NORAD_CAT_ID": 33945, "ELEMENT_SET_NO": 999, "REV_AT_EPOCH": 88160, "BSTAR": 0.00011325054, "MEAN_MOTION_DOT": 2.95e-06, "MEAN_MOTION_DDOT": 0}, "tle": {"line1": "1 33945U 93036FA  25356.82213477  .00000295  00000+0  11325-3 0  9990", "line2": "2 33945  74.0303 287.7927 0022340  11.4442 348.7214 14.34608243881609"}}, "geometry": {"type": "Point", "coordinates": [97.94134588899891, 28.0494775624213]}}, {"type": "Feature", "properties": {"norad_id": 33948, "name": "COSMOS 2251 DEB", "group": "cosmos-2251-debris", "lat": 37.25724037723552, "lon": -61.8657877809906, "alt_km": 757.2301406131846, "timestamp": "2025-12-23T09:49:07.476117+00:00", "meta": {"OBJECT_NAME": "COSMOS 2251 DEB", "OBJECT_ID": "1993-036FD", "EPOCH": "2025-12-22T20:15:33.032448", "MEAN_MOTION": 14.3564045, "ECCENTRICITY": 0.00231825, "INCLINATION": 74.0361, "RA_OF_ASC_NODE": 286.5949, "ARG_OF_PERICENTER": 359.9903, "MEAN_ANOMALY": 0.1245, "EPHEMERIS_TYPE": 0, "CLASSIFICATION_TYPE": "U", "NORAD_CAT_ID": 33948, "ELEMENT_SET_NO": 999, "REV_AT_EPOCH": 88168, "BSTAR": 0.00017259874, "MEAN_MOTION_DOT": 4.73e-06, "MEAN_MOTION_DDOT": 0}, "tle": {"line1": "1 33948U 93036FD  25356.84413232  .00000473  00000+0  17260-3 0  9998", "line2": "2 33948  74.0361 286.5949 0023182 359.9903   0.1245 14.35640450881682"}}, "geometry": {"type": "Point", "coordinates": [-61.8657877809906, 37.25724037723552]}}, {"type": "Feature", "properties": {"norad_id": 33971, "name": "COSMOS 2251 DEB", "group": "cosmos-2251-debris", "lat": -72.92141386332118, "lon": 122.83425256160747, "alt_km": 761.3882246685234, "timestamp": "2025-12-23T09:49:07.476128+00:00", "meta": {"OBJECT_NAME": "COSMOS 2251 DEB", "OBJECT_ID": "1993-036FE", "EPOCH": "2025-12-22T22:41:43.271808", "MEAN_MOTION": 14.3974214, "ECCENTRICITY": 0.00189406, "INCLINATION": 74.0241, "RA_OF_ASC_NODE": 234.8714, "ARG_OF_PERICENTER": 333.6505, "MEAN_ANOMALY": 49.193, "EPHEMERIS_TYPE": 0, "CLASSIFICATION_TYPE": "U", "NORAD_CAT_ID": 33971, "ELEMENT_SET_NO": 999, "REV_AT_EPOCH": 88286, "BSTAR": 0.00023896436, "MEAN_MOTION_DOT": 7.24e-06, "MEAN_MOTION_DDOT": 0}, "tle": {"line1": "1 33971U 93036FE  25356.94563972  .00000724  00000+0  23896-3 0  9993", "line2": "2 33971  74.0241 234.8714 0018940 333.6505  49.1930 14.39742140882862"}}, "geometry": {"type": "Point", "coordinates": [122.83425256160747, -72.92141386332118]}}, {"type": "Feature", "properties": {"norad_id": 33972, "name": "COSMOS 2251 DEB", "group": "cosmos-2251-debris", "lat": 64.7568157317792, "lon": -151.47988826559376, "alt_km": 769.0389592358133, "timestamp": "2025-12-23T09:49:07.476138+00:00", "meta": {"OBJECT_NAME": "COSMOS 2251 DEB", "OBJECT_ID": "1993-036FF", "EPOCH": "2025-12-22T11:54:25.691616", "MEAN_MOTION": 14.36292058, "ECCENTRICITY": 0.01238157, "INCLINATION": 73.9934, "RA_OF_ASC_NODE": 172.696, "ARG_OF_PERICENTER": 338.2339, "MEAN_ANOMALY": 51.7728, "EPHEMERIS_TYPE": 0, "CLASSIFICATION_TYPE": "U", "NORAD_CAT_ID": 33972, "ELEMENT_SET_NO": 999, "REV_AT_EPOCH": 87214, "BSTAR": 0.0012268858, "MEAN_MOTION_DOT": 3.888e-05, "MEAN_MOTION_DDOT": 0}, "tle": {"line1": "1 33972U 93036FF  25356.49613069  .00003888  00000+0  12269-2 0  9992", "line2": "2 33972  73.9934 172.6960 0123815 338.2339  51.7728 14.36292058872145"}}, "geometry": {"type": "Point", "coordinates": [-151.47988826559376, 64.7568157317792]}}, {"type": "Feature", "properties": {"norad_id": 33973, "name": "COSMOS 2251 DEB", "group": "cosmos-2251-debris", "lat": 9.937479921410434, "lon": -99.9064673016153, "alt_km": 741.6667075469386, "timestamp": "2025-12-23T09:49:07.476148+00:00", "meta": {"OBJECT_NAME": "COSMOS 2251 DEB", "OBJECT_ID": "1993-036FG", "EPOCH": "2025-12-21T16:02:41.722080", "MEAN_MOTION": 14.4539971, "ECCENTRICITY": 0.00473927, "INCLINATION": 74.0086, "RA_OF_ASC_NODE": 86.222, "ARG_OF_PERICENTER": 263.007, "MEAN_ANOMALY": 213.7639, "EPHEMERIS_TYPE": 0, "CLASSIFICATION_TYPE": "U", "NORAD_CAT_ID": 33973, "ELEMENT_SET_NO": 999, "REV_AT_EPOCH": 88729, "BSTAR": 0.00011891027, "MEAN_MOTION_DOT": 3.96e-06, "MEAN_MOTION_DDOT": 0}, "tle": {"line1": "1 33973U 93036FG  25355.66853845  .00000396  00000+0  11891-3 0  9991", "line2": "2 33973  74.0086  86.2220 0047392 263.0070 213.7639 14.45399710887293"}}, "geometry": {"type": "Point", "coordinates": [-99.9064673016153, 9.937479921410434]}}, {"type": "Feature", "properties": {"norad_id": 33975, "name": "COSMOS 2251 DEB", "group": "cosmos-2251-debris", "lat": -9.541003910635945, "lon": -111.50062189539479, "alt_km": 757.7757321664822, "timestamp": "2025-12-23T09:49:07.476158+00:00", "meta": {"OBJECT_NAME": "COSMOS 2251 DEB", "OBJECT_ID": "1993-036FJ", "EPOCH": "2025-12-21T22:37:30.048960", "MEAN_MOTION": 14.00542381, "ECCENTRICITY": 0.01909921, "INCLINATION": 73.8017, "RA_OF_ASC_NODE": 68.2757, "ARG_OF_PERICENTER": 199.7503, "MEAN_ANOMALY": 159.6166, "EPHEMERIS_TYPE": 0, "CLASSIFICATION_TYPE": "U", "NORAD_CAT_ID": 33975, "ELEMENT_SET_NO": 999, "REV_AT_EPOCH": 85958, "BSTAR": 0.00047903037, "MEAN_MOTION_DOT": 8.08e-06, "MEAN_MOTION_DDOT": 0}, "tle": {"line1": "1 33975U 93036FJ  25355.94270890  .00000808  00000+0  47903-3 0  9998", "line2": "2 33975  73.8017  68.2757 0190992 199.7503 159.6166 14.00542381859581"}}, "geometry": {"type": "Point", "coordinates": [-111.50062189539479, -9.541003910635945]}}]}